ONEWEB-0045             
1 45151U 20008W   25345.62617688 -.00000436  00000+0 -12663-2 0  9993
2 45151  87.8881  58.3950 0001843 103.5962 256.5372 13.11414070285827
ONEWEB-0047             
1 45152U 20008X   25345.53874579  .00000271  00000+0  73891-3 0  9994
2 45152  87.8805  73.6754 0001689 106.9552 253.1761 13.10374798283628
ONEWEB-0048             
1 45153U 20008Y   25345.53377748  .00000296  00000+0  81062-3 0  9997
2 45153  87.8808  73.7040 0001588 100.7631 259.3675 13.10378198283236
ONEWEB-0049             
1 45154U 20008Z   25345.53693631  .00014997  00000+0  42908-1 0  9997
2 45154  87.8806  73.6919 0001343 123.8379 236.2876 13.10287367283451
ONEWEB-0051             
1 45155U 20008AA  25345.62446970 -.00002183  00000+0 -61964-2 0  9990
2 45155  87.8856  58.4171 0001720 103.7023 256.4297 13.11424976286500
ONEWEB-0052             
1 45156U 20008AB  25345.30219761  .00000175  00000+0  46524-3 0  9995
2 45156  87.8818  73.6993 0001554 123.2302 236.8975 13.10376944283335
ONEWEB-0053             
1 45157U 20008AC  25345.51382717 -.00000789  00000+0 -22967-2 0  9998
2 45157  87.8811  73.7036 0002012 104.6382 255.4968 13.10372881283334
ONEWEB-0054             
1 45158U 20008AD  25345.54871088  .00000622  00000+0  17464-2 0  9996
2 45158  87.8810  73.6681 0001613 106.0616 254.0689 13.10372700283459
